{
  "type": "FeatureCollection",
  "features": [
    {
      "type": "Feature",
      "properties": {
        "norad_id": 22490,
        "name": "SCD 1",
        "group": "resource",
        "lat": -9.118159550233784,
        "lon": 109.61792473524552,
        "alt_km": 760.2341016161708,
        "timestamp": "2025-12-14T05:42:18.113781+00:00",
        "meta_object_name": "SCD 1",
        "meta_object_id": "1993-009B",
        "meta_epoch": "2025-12-13T12:57:14.164128",
        "meta_mean_motion": 14.46000141,
        "meta_eccentricity": 0.00418337,
        "meta_inclination": 24.9698,
        "meta_ra_of_asc_node": 273.7492,
        "meta_arg_of_pericenter": 333.5211,
        "meta_mean_anomaly": 188.1101,
        "meta_ephemeris_type": 0,
        "meta_classification_type": "U",
        "meta_norad_cat_id": 22490,
        "meta_element_set_no": 999,
        "meta_rev_at_epoch": 73421,
        "meta_bstar": 0.00014828014,
        "meta_mean_motion_dot": 7.28e-06,
        "meta_mean_motion_ddot": 0,
        "tle_line1": "1 22490U 93009B   25347.53974727  .00000728  00000+0  14828-3 0  9995",
        "tle_line2": "2 22490  24.9698 273.7492 0041833 333.5211 188.1101 14.46000141734216"
      },
      "geometry": {
        "type": "Point",
        "coordinates": [
          109.61792473524552,
          -9.118159550233784
        ]
      }
    },
    {
      "type": "Feature",
      "properties": {
        "norad_id": 25397,
        "name": "TECHSAT 1B (GO-32)",
        "group": "resource",
        "lat": -71.73633657523715,
        "lon": 0.15728004687039954,
        "alt_km": 818.7476436726729,
        "timestamp": "2025-12-14T05:42:18.113818+00:00",
        "meta_object_name": "TECHSAT 1B (GO-32)",
        "meta_object_id": "1998-043D",
        "meta_epoch": "2025-12-13T13:11:35.630016",
        "meta_mean_motion": 14.24377325,
        "meta_eccentricity": 0.00020323,
        "meta_inclination": 98.9921,
        "meta_ra_of_asc_node": 330.7805,
        "meta_arg_of_pericenter": 56.0464,
        "meta_mean_anomaly": 304.0907,
        "meta_ephemeris_type": 0,
        "meta_classification_type": "U",
        "meta_norad_cat_id": 25397,
        "meta_element_set_no": 999,
        "meta_rev_at_epoch": 42490,
        "meta_bstar": 8.7860936e-05,
        "meta_mean_motion_dot": 1.57e-06,
        "meta_mean_motion_ddot": 0,
        "tle_line1": "1 25397U 98043D   25347.54971794  .00000157  00000+0  87861-4 0  9993",
        "tle_line2": "2 25397  98.9921 330.7805 0002032  56.0464 304.0907 14.24377325424904"
      },
      "geometry": {
        "type": "Point",
        "coordinates": [
          0.15728004687039954,
          -71.73633657523715
        ]
      }
    },
    {
      "type": "Feature",
      "properties": {
        "norad_id": 25504,
        "name": "SCD 2",
        "group": "resource",
        "lat": -19.19000249027237,
        "lon": 1.0002090075553713,
        "alt_km": 742.5033290963929,
        "timestamp": "2025-12-14T05:42:18.113835+00:00",
        "meta_object_name": "SCD 2",
        "meta_object_id": "1998-060A",
        "meta_epoch": "2025-12-13T12:13:53.570784",
        "meta_mean_motion": 14.45424195,
        "meta_eccentricity": 0.00166813,
        "meta_inclination": 24.9934,
        "meta_ra_of_asc_node": 137.1484,
        "meta_arg_of_pericenter": 321.8647,
        "meta_mean_anomaly": 73.2227,
        "meta_ephemeris_type": 0,
        "meta_classification_type": "U",
        "meta_norad_cat_id": 25504,
        "meta_element_set_no": 999,
        "meta_rev_at_epoch": 43343,
        "meta_bstar": 0.00012024336,
        "meta_mean_motion_dot": 6.13e-06,
        "meta_mean_motion_ddot": 0,
        "tle_line1": "1 25504U 98060A   25347.50964781  .00000613  00000+0  12024-3 0  9991",
        "tle_line2": "2 25504  24.9934 137.1484 0016681 321.8647  73.2227 14.45424195433439"
      },
      "geometry": {
        "type": "Point",
        "coordinates": [
          1.0002090075553713,
          -19.19000249027237
        ]
      }
    },
    {
      "type": "Feature",
      "properties": {
        "norad_id": 25757,
        "name": "DLR-TUBSAT",
        "group": "resource",
        "lat": -63.57030433868435,
        "lon": -9.354344959715556,
        "alt_km": 728.0042179734264,
        "timestamp": "2025-12-14T05:42:18.113848+00:00",
        "meta_object_name": "DLR-TUBSAT",
        "meta_object_id": "1999-029B",
        "meta_epoch": "2025-12-13T13:28:10.799040",
        "meta_mean_motion": 14.52358086,
        "meta_eccentricity": 0.0013954,
        "meta_inclination": 98.6564,
        "meta_ra_of_asc_node": 332.1003,
        "meta_arg_of_pericenter": 190.2558,
        "meta_mean_anomaly": 169.8354,
        "meta_ephemeris_type": 0,
        "meta_classification_type": "U",
        "meta_norad_cat_id": 25757,
        "meta_element_set_no": 999,
        "meta_rev_at_epoch": 40630,
        "meta_bstar": 6.7662771e-05,
        "meta_mean_motion_dot": 2.27e-06,
        "meta_mean_motion_ddot": 0,
        "tle_line1": "1 25757U 99029B   25347.56123610  .00000227  00000+0  67663-4 0  9992",
        "tle_line2": "2 25757  98.6564 332.1003 0013954 190.2558 169.8354 14.52358086406301"
      },
      "geometry": {
        "type": "Point",
        "coordinates": [
          -9.354344959715556,
          -63.57030433868435
        ]
      }
    },
    {
      "type": "Feature",
      "properties": {
        "norad_id": 25994,
        "name": "TERRA",
        "group": "resource",
        "lat": 43.45335950500956,
        "lon": 32.23488529672854,
        "alt_km": 684.8887032363473,
        "timestamp": "2025-12-14T05:42:18.113860+00:00",
        "meta_object_name": "TERRA",
        "meta_object_id": "1999-068A",
        "meta_epoch": "2025-12-13T16:51:39.481056",
        "meta_mean_motion": 14.60903286,
        "meta_eccentricity": 0.00036,
        "meta_inclination": 97.9749,
        "meta_ra_of_asc_node": 39.3517,
        "meta_arg_of_pericenter": 92.5015,
        "meta_mean_anomaly": 18.6853,
        "meta_ephemeris_type": 0,
        "meta_classification_type": "U",
        "meta_norad_cat_id": 25994,
        "meta_element_set_no": 999,
        "meta_rev_at_epoch": 38252,
        "meta_bstar": 0.00015543692,
        "meta_mean_motion_dot": 7.16e-06,
        "meta_mean_motion_ddot": 0,
        "tle_line1": "1 25994U 99068A   25347.70254029  .00000716  00000+0  15544-3 0  9996",
        "tle_line2": "2 25994  97.9749  39.3517 0003600  92.5015  18.6853 14.60903286382525"
      },
      "geometry": {
        "type": "Point",
        "coordinates": [
          32.23488529672854,
          43.45335950500956
        ]
      }
    },
    {
      "type": "Feature",
      "properties": {
        "norad_id": 27004,
        "name": "MAROC-TUBSAT",
        "group": "resource",
        "lat": -78.98016599620601,
        "lon": -85.75364609971707,
        "alt_km": 992.0127629924345,
        "timestamp": "2025-12-14T05:42:18.113873+00:00",
        "meta_object_name": "MAROC-TUBSAT",
        "meta_object_id": "2001-056D",
        "meta_epoch": "2025-12-13T11:09:30.382272",
        "meta_mean_motion": 13.70252934,
        "meta_eccentricity": 0.00191051,
        "meta_inclination": 99.7912,
        "meta_ra_of_asc_node": 155.9226,
        "meta_arg_of_pericenter": 258.2182,
        "meta_mean_anomaly": 156.6183,
        "meta_ephemeris_type": 0,
        "meta_classification_type": "U",
        "meta_norad_cat_id": 27004,
        "meta_element_set_no": 999,
        "meta_rev_at_epoch": 20075,
        "meta_bstar": 4.6062908e-05,
        "meta_mean_motion_dot": -6e-08,
        "meta_mean_motion_ddot": 0,
        "tle_line1": "1 27004U 01056D   25347.46493498 -.00000006  00000+0  46063-4 0  9992",
        "tle_line2": "2 27004  99.7912 155.9226 0019105 258.2182 156.6183 13.70252934200756"
      },
      "geometry": {
        "type": "Point",
        "coordinates": [
          -85.75364609971707,
          -78.98016599620601
        ]
      }
    },
    {
      "type": "Feature",
      "properties": {
        "norad_id": 27424,
        "name": "AQUA",
        "group": "resource",
        "lat": -73.64072625093961,
        "lon": -20.620378227064343,
        "alt_km": 695.4265148996737,
        "timestamp": "2025-12-14T05:42:18.113885+00:00",
        "meta_object_name": "AQUA",
        "meta_object_id": "2002-022A",
        "meta_epoch": "2025-12-13T16:04:43.741344",
        "meta_mean_motion": 14.61812847,
        "meta_eccentricity": 0.00011561,
        "meta_inclination": 98.4036,
        "meta_ra_of_asc_node": 308.5641,
        "meta_arg_of_pericenter": 114.4382,
        "meta_mean_anomaly": 63.5926,
        "meta_ephemeris_type": 0,
        "meta_classification_type": "U",
        "meta_norad_cat_id": 27424,
        "meta_element_set_no": 999,
        "meta_rev_at_epoch": 25616,
        "meta_bstar": 0.00034627403,
        "meta_mean_motion_dot": 1.68e-05,
        "meta_mean_motion_ddot": 0,
        "tle_line1": "1 27424U 02022A   25347.66995071  .00001680  00000+0  34627-3 0  9998",
        "tle_line2": "2 27424  98.4036 308.5641 0001156 114.4382  63.5926 14.61812847256167"
      },
      "geometry": {
        "type": "Point",
        "coordinates": [
          -20.620378227064343,
          -73.64072625093961
        ]
      }
    }
  ]
}